OBJECT_NAME,OBJECT_ID,EPOCH,MEAN_MOTION,ECCENTRICITY,INCLINATION,RA_OF_ASC_NODE,ARG_OF_PERICENTER,MEAN_ANOMALY,EPHEMERIS_TYPE,CLASSIFICATION_TYPE,NORAD_CAT_ID,ELEMENT_SET_NO,REV_AT_EPOCH,BSTAR,MEAN_MOTION_DOT,MEAN_MOTION_DDOT
BEIDOU-2 IGSO-5 (C10),2011-073A,2026-07-02T17:30:18.330912,1.00270596,.01145273,47.6496,271.3544,222.0502,141.5350,0,U,37948,999,5329,0,-.128E-5,0
LUCH 5A (SDCM/PRN 140),2011-074B,2026-07-06T15:13:04.570752,1.00272633,.0002614,8.7999,73.5230,51.3862,194.9263,0,U,37951,999,5324,0,-.39E-6,0
BEIDOU-2 G5 (C05),2012-008A,2026-07-07T03:45:36.687168,1.00268677,.0007429,3.6203,69.5757,273.5139,57.1746,0,U,38091,999,5256,0,.7E-6,0
BEIDOU-2 M3 (C11),2012-018A,2026-07-05T23:34:25.155840,1.86230201,.0020688,55.7406,304.2424,272.8560,86.9284,0,U,38250,999,9629,0,-.61E-6,0
BEIDOU-2 M4 (C12),2012-018B,2026-07-05T21:56:58.537824,1.86229838,.0011824,55.6406,303.4567,273.7127,86.1743,0,U,38251,999,9629,0,-.61E-6,0
SES-5 (EGNOS/PRN 136),2012-036A,2026-07-07T03:30:15.657120,1.00271844,.0001986,0.0479,314.3867,155.5606,232.7210,0,U,38652,999,4465,0,.49E-6,0
BEIDOU-2 M6 (C14),2012-050B,2026-07-06T03:52:05.782656,1.86230942,.0013167,56.5605,62.2672,0.2513,359.8149,0,U,38775,999,9366,0,-.4E-6,0
GSAT-10 (GAGAN/PRN 128),2012-051B,2026-07-06T15:56:37.449312,1.00269440,.0007864,0.0420,240.1474,214.3085,152.3326,0,U,38779,999,5029,0,-.149E-5,0
GPS BIIF-3  (PRN 24),2012-053A,2026-07-05T18:18:56.114208,2.00567790,.0181408,53.5886,142.8384,66.0586,295.8053,0,U,38833,999,9981,0,.67E-6,0
GSAT0103 (GALILEO-FM3),2012-055A,2026-07-05T01:45:34.213824,1.70473389,.0004125,55.8163,101.0549,308.6335,51.3483,0,U,38857,999,8531,0,.1E-7,0
BEIDOU-2 G6 (C02),2012-059A,2026-07-07T02:10:13.201248,1.00269175,.000915,4.4686,73.3130,330.3631,357.9238,0,U,38953,999,5010,0,-.162E-5,0
LUCH 5B (SDCM/PRN 125),2012-061A,2026-07-06T22:16:10.068384,1.00271941,.0003423,10.5235,49.6822,138.9528,54.0691,0,U,38977,999,4980,0,-.128E-5,0
COSMOS 2485 (747),2013-019A,2026-07-06T03:35:29.879232,2.13103473,.0022918,65.4297,72.9683,232.1119,127.7452,0,U,39155,999,10268,0,-.15E-6,0
GPS BIIF-4  (PRN 27),2013-023A,2026-07-07T03:01:56.404128,2.00563366,.0141401,54.4888,268.1608,51.1024,310.2139,0,U,39166,999,9628,0,-.1E-6,0
IRNSS-1A,2013-034A,2026-07-05T17:31:35.683968,1.00280420,.00178584,35.7606,63.6043,181.6646,356.4955,0,U,39199,999,4755,0,.68E-6,0
GPS BIIF-5  (PRN 30),2014-008A,2026-07-06T15:06:35.367264,2.00561029,.0084187,53.6570,148.5269,231.4917,127.7311,0,U,39533,999,9007,0,.76E-6,0
ASTRA 5B (EGNOS/PRN 123),2014-011B,2026-07-07T03:58:38.786880,1.00270689,.0001931,0.0686,307.9755,160.4725,259.8469,0,U,39617,999,4486,0,.152E-5,0
COSMOS 2492 (754),2014-012A,2026-07-06T02:36:15.181920,2.13103524,.0010327,65.2858,313.2935,320.0256,39.9108,0,U,39620,999,9564,0,-.45E-6,0
IRNSS-1B,2014-017A,2026-07-05T17:31:20.708256,1.00272765,.00229695,28.8929,240.0829,195.5386,165.9835,0,U,39635,999,4498,0,.137E-5,0
LUCH 5V (SDCM/PRN 141),2014-023A,2026-07-07T01:54:38.873376,1.00268009,.0002712,5.1790,69.5465,64.1093,274.7524,0,U,39727,999,4455,0,-.255E-5,0
GPS BIIF-6  (PRN 06),2014-026A,2026-07-05T21:47:50.533728,2.00559646,.0038111,56.4884,330.7891,326.0557,33.7048,0,U,39741,999,8891,0,-.68E-6,0
COSMOS 2500 (755),2014-032A,2026-07-07T05:11:48.297408,2.13106140,.0007971,65.2207,313.0011,188.6383,171.3606,0,U,40001,999,9388,0,-.48E-6,0
GPS BIIF-7  (PRN 09),2014-045A,2026-07-06T00:00:01.677888,2.00559674,.00341035,55.3649,87.7155,118.3151,242.0701,0,U,40105,999,8645,0,-.13E-6,0
GSAT0201 (GALILEO 5),2014-050A,2026-07-05T04:52:57.756000,1.85520009,.1677026,48.8557,272.6971,180.0981,179.9258,0,U,40128,999,7865,0,-.32E-6,0
GSAT0202 (GALILEO 6),2014-050B,2026-07-05T23:56:58.854624,1.85520580,.1678484,48.8715,271.7502,180.8497,178.8849,0,U,40129,999,8083,0,-.31E-6,0
IRNSS-1C,2014-061A,2026-07-06T19:19:15.139776,1.00273671,.0022129,6.5665,88.5574,4.5724,204.4639,0,U,40269,999,4288,0,-.15E-5,0
GPS BIIF-8  (PRN 03),2014-068A,2026-07-06T20:46:19.760736,2.00577397,.0067431,57.0010,30.1972,71.2772,289.5066,0,U,40294,999,8560,0,-.53E-6,0
COSMOS 2501 (702K),2014-075A,2026-07-06T12:58:02.119584,2.13101455,.0022679,63.6180,189.7021,212.6524,147.2323,0,U,40315,999,9026,0,.114E-5,0
GPS BIIF-9  (PRN 26),2015-013A,2026-07-07T00:09:37.306656,2.00550184,.011007,53.1668,203.3578,40.3021,320.5512,0,U,40534,999,8222,0,.101E-5,0
GSAT0203 (GALILEO 7),2015-017A,2026-07-05T23:36:10.930176,1.70476214,.000246,56.7803,341.0841,259.0454,100.9264,0,U,40544,999,6952,0,-.72E-6,0
GSAT0204 (GALILEO 8),2015-017B,2026-07-04T11:30:32.846112,1.70475782,.0002451,56.7872,341.1436,236.0411,123.9323,0,U,40545,999,3254,0,-.73E-6,0
